{
  "type": "FeatureCollection",
  "features": [
    {
      "type": "Feature",
      "properties": {
        "norad_id": 41581,
        "name": "INTELSAT 31 (IS-31)",
        "group": "intelsat",
        "lat": -0.012301939182002244,
        "lon": -97.39019633199325,
        "alt_km": 35782.39886783818,
        "timestamp": "2025-12-27T17:24:57.061544+00:00",
        "meta_object_name": "INTELSAT 31 (IS-31)",
        "meta_object_id": "2016-035A",
        "meta_epoch": "2025-12-23T19:31:44.703840",
        "meta_mean_motion": 1.00269658,
        "meta_eccentricity": 0.0001926,
        "meta_inclination": 0.0283,
        "meta_ra_of_asc_node": 262.055,
        "meta_arg_of_pericenter": 303.365,
        "meta_mean_anomaly": 85.0534,
        "meta_ephemeris_type": 0,
        "meta_classification_type": "U",
        "meta_norad_cat_id": 41581,
        "meta_element_set_no": 999,
        "meta_rev_at_epoch": 3492,
        "meta_bstar": 0,
        "meta_mean_motion_dot": -1.29e-06,
        "meta_mean_motion_ddot": 0,
        "tle_line1": "1 41581U 16035A   25357.81371185 -.00000129  00000+0  00000+0 0  9991",
        "tle_line2": "2 41581   0.0283 262.0550 0001926 303.3650  85.0534  1.00269658 34922"
      },
      "geometry": {
        "type": "Point",
        "coordinates": [
          -97.39019633199325,
          -0.012301939182002244
        ]
      }
    },
    {
      "type": "Feature",
      "properties": {
        "norad_id": 41747,
        "name": "INTELSAT 36 (IS-36)",
        "group": "intelsat",
        "lat": 0.02418880078699532,
        "lon": 66.1978198823123,
        "alt_km": 35786.637116686215,
        "timestamp": "2025-12-27T17:24:57.061557+00:00",
        "meta_object_name": "INTELSAT 36 (IS-36)",
        "meta_object_id": "2016-053A",
        "meta_epoch": "2025-12-27T11:36:58.279104",
        "meta_mean_motion": 1.00273471,
        "meta_eccentricity": 0.0001247,
        "meta_inclination": 0.0091,
        "meta_ra_of_asc_node": 7.4041,
        "meta_arg_of_pericenter": 317.6199,
        "meta_mean_anomaly": 13.9326,
        "meta_ephemeris_type": 0,
        "meta_classification_type": "U",
        "meta_norad_cat_id": 41747,
        "meta_element_set_no": 999,
        "meta_rev_at_epoch": 3422,
        "meta_bstar": 0,
        "meta_mean_motion_dot": -2e-08,
        "meta_mean_motion_ddot": 0,
        "tle_line1": "1 41747U 16053A   25361.48400786 -.00000002  00000+0  00000+0 0  9993",
        "tle_line2": "2 41747   0.0091   7.4041 0001247 317.6199  13.9326  1.00273471 34221"
      },
      "geometry": {
        "type": "Point",
        "coordinates": [
          66.1978198823123,
          0.02418880078699532
        ]
      }
    },
    {
      "type": "Feature",
      "properties": {
        "norad_id": 41945,
        "name": "INTELSAT 32E (IS-32E)",
        "group": "intelsat",
        "lat": -0.03398428166759417,
        "lon": -45.49009880773167,
        "alt_km": 35784.54963572362,
        "timestamp": "2025-12-27T17:24:57.061568+00:00",
        "meta_object_name": "INTELSAT 32E (IS-32E)",
        "meta_object_id": "2017-007B",
        "meta_epoch": "2025-12-27T04:14:10.684320",
        "meta_mean_motion": 1.00273823,
        "meta_eccentricity": 3.01e-05,
        "meta_inclination": 0.0262,
        "meta_ra_of_asc_node": 75.2297,
        "meta_arg_of_pericenter": 275.2972,
        "meta_mean_anomaly": 125.7539,
        "meta_ephemeris_type": 0,
        "meta_classification_type": "U",
        "meta_norad_cat_id": 41945,
        "meta_element_set_no": 999,
        "meta_rev_at_epoch": 3250,
        "meta_bstar": 0,
        "meta_mean_motion_dot": -2.46e-06,
        "meta_mean_motion_ddot": 0,
        "tle_line1": "1 41945U 17007B   25361.17651255 -.00000246  00000+0  00000+0 0  9998",
        "tle_line2": "2 41945   0.0262  75.2297 0000301 275.2972 125.7539  1.00273823 32503"
      },
      "geometry": {
        "type": "Point",
        "coordinates": [
          -45.49009880773167,
          -0.03398428166759417
        ]
      }
    },
    {
      "type": "Feature",
      "properties": {
        "norad_id": 42818,
        "name": "INTELSAT 35E (IS-35E)",
        "group": "intelsat",
        "lat": -0.029126941345497686,
        "lon": -36.79066382212047,
        "alt_km": 35780.24045793339,
        "timestamp": "2025-12-27T17:24:57.061580+00:00",
        "meta_object_name": "INTELSAT 35E (IS-35E)",
        "meta_object_id": "2017-041A",
        "meta_epoch": "2025-12-27T11:07:31.101024",
        "meta_mean_motion": 1.00273079,
        "meta_eccentricity": 0.0002081,
        "meta_inclination": 0.0166,
        "meta_ra_of_asc_node": 47.84,
        "meta_arg_of_pericenter": 224.0356,
        "meta_mean_anomaly": 316.7047,
        "meta_ephemeris_type": 0,
        "meta_classification_type": "U",
        "meta_norad_cat_id": 42818,
        "meta_element_set_no": 999,
        "meta_rev_at_epoch": 3109,
        "meta_bstar": 0,
        "meta_mean_motion_dot": -2.15e-06,
        "meta_mean_motion_ddot": 0,
        "tle_line1": "1 42818U 17041A   25361.46355441 -.00000215  00000+0  00000+0 0  9992",
        "tle_line2": "2 42818   0.0166  47.8400 0002081 224.0356 316.7047  1.00273079 31094"
      },
      "geometry": {
        "type": "Point",
        "coordinates": [
          -36.79066382212047,
          -0.029126941345497686
        ]
      }
    },
    {
      "type": "Feature",
      "properties": {
        "norad_id": 42950,
        "name": "INTELSAT 37E (IS-37E)",
        "group": "intelsat",
        "lat": -0.02518682900965951,
        "lon": -20.27329835534961,
        "alt_km": 35782.856159387746,
        "timestamp": "2025-12-27T17:24:57.061591+00:00",
        "meta_object_name": "INTELSAT 37E (IS-37E)",
        "meta_object_id": "2017-059A",
        "meta_epoch": "2025-12-27T09:29:32.983296",
        "meta_mean_motion": 1.00271344,
        "meta_eccentricity": 0.0003132,
        "meta_inclination": 0.0198,
        "meta_ra_of_asc_node": 29.8177,
        "meta_arg_of_pericenter": 234.5164,
        "meta_mean_anomaly": 316.1899,
        "meta_ephemeris_type": 0,
        "meta_classification_type": "U",
        "meta_norad_cat_id": 42950,
        "meta_element_set_no": 999,
        "meta_rev_at_epoch": 3034,
        "meta_bstar": 0,
        "meta_mean_motion_dot": -1.18e-06,
        "meta_mean_motion_ddot": 0,
        "tle_line1": "1 42950U 17059A   25361.39552064 -.00000118  00000+0  00000+0 0  9992",
        "tle_line2": "2 42950   0.0198  29.8177 0003132 234.5164 316.1899  1.00271344 30347"
      },
      "geometry": {
        "type": "Point",
        "coordinates": [
          -20.27329835534961,
          -0.02518682900965951
        ]
      }
    },
    {
      "type": "Feature",
      "properties": {
        "norad_id": 43632,
        "name": "AZERSPACE 2 (IS-38)",
        "group": "intelsat",
        "lat": 0.022834243489704222,
        "lon": 42.80905352791428,
        "alt_km": 35789.87593389258,
        "timestamp": "2025-12-27T17:24:57.061603+00:00",
        "meta_object_name": "AZERSPACE 2 (IS-38)",
        "meta_object_id": "2018-074A",
        "meta_epoch": "2025-12-27T11:30:13.926240",
        "meta_mean_motion": 1.00271504,
        "meta_eccentricity": 0.0001533,
        "meta_inclination": 0.0172,
        "meta_ra_of_asc_node": 2.3727,
        "meta_arg_of_pericenter": 275.1923,
        "meta_mean_anomaly": 36.3147,
        "meta_ephemeris_type": 0,
        "meta_classification_type": "U",
        "meta_norad_cat_id": 43632,
        "meta_element_set_no": 999,
        "meta_rev_at_epoch": 2672,
        "meta_bstar": 0,
        "meta_mean_motion_dot": 1.59e-06,
        "meta_mean_motion_ddot": 0,
        "tle_line1": "1 43632U 18074A   25361.47932785  .00000159  00000+0  00000+0 0  9993",
        "tle_line2": "2 43632   0.0172   2.3727 0001533 275.1923  36.3147  1.00271504 26723"
      },
      "geometry": {
        "type": "Point",
        "coordinates": [
          42.80905352791428,
          0.022834243489704222
        ]
      }
    },
    {
      "type": "Feature",
      "properties": {
        "norad_id": 43633,
        "name": "HORIZONS-3E",
        "group": "intelsat",
        "lat": -0.020406902375572532,
        "lon": 166.69522272575364,
        "alt_km": 35786.89386226678,
        "timestamp": "2025-12-27T17:24:57.061619+00:00",
        "meta_object_name": "HORIZONS-3E",
        "meta_object_id": "2018-074B",
        "meta_epoch": "2025-12-26T17:15:43.848864",
        "meta_mean_motion": 1.00274781,
        "meta_eccentricity": 7.286e-05,
        "meta_inclination": 0.0491,
        "meta_ra_of_asc_node": 194.9821,
        "meta_arg_of_pericenter": 94.8605,
        "meta_mean_anomaly": 233.5586,
        "meta_ephemeris_type": 0,
        "meta_classification_type": "U",
        "meta_norad_cat_id": 43633,
        "meta_element_set_no": 999,
        "meta_rev_at_epoch": 2661,
        "meta_bstar": 0,
        "meta_mean_motion_dot": -7e-08,
        "meta_mean_motion_ddot": 0,
        "tle_line1": "1 43633U 18074B   25360.71925751 -.00000007  00000+0  00000+0 0  9998",
        "tle_line2": "2 43633   0.0491 194.9821 0000728  94.8605 233.5586  1.00274781 26615"
      },
      "geometry": {
        "type": "Point",
        "coordinates": [
          166.69522272575364,
          -0.020406902375572532
        ]
      }
    }
  ]
}